{"fetched_at":"2026-03-29T02:12:04Z","count":15717,"tles":[{"name":"STARLINK-11413 [DTC]","line1":"1 62593U 25008G   26087.20878004  .00189695  00000+0  14442-2 0  9996","line2":"2 62593  43.0011  14.8215 0001814 260.9182  99.1480 15.70907596 70095","category":"Starlink"}]}